[{"OBJECT_NAME":"STARLINK-34169","OBJECT_ID":"2025-101F","EPOCH":"2026-03-09T05:00:15.716736","MEAN_MOTION":15.27555344,"ECCENTRICITY":0.00019194,"INCLINATION":43.0053,"RA_OF_ASC_NODE":0.5107,"ARG_OF_PERICENTER":260.2441,"MEAN_ANOMALY":99.8194,"EPHEMERIS_TYPE":0,"CLASSIFICATION_TYPE":"U","NORAD_CAT_ID":63999,"ELEMENT_SET_NO":999,"REV_AT_EPOCH":4698,"BSTAR":0.0012345553,"MEAN_MOTION_DOT":0.00033841,"MEAN_MOTION_DDOT":0},{"OBJECT_NAME":"ATLAS CENTAUR 2 DEB","OBJECT_ID":"1963-047H","EPOCH":"2026-03-09T12:19:05.186208","MEAN_MOTION":13.85184807,"ECCENTRICITY":0.06358941,"INCLINATION":30.4264,"RA_OF_ASC_NODE":268.0385,"ARG_OF_PERICENTER":278.88,"MEAN_ANOMALY":74.0363,"EPHEMERIS_TYPE":0,"CLASSIFICATION_TYPE":"U","NORAD_CAT_ID":739,"ELEMENT_SET_NO":999,"REV_AT_EPOCH":12755,"BSTAR":7.4246784e-5,"MEAN_MOTION_DOT":5.52e-6,"MEAN_MOTION_DDOT":0}]
